start=new Date('2022-04-19T00:00:00.000Z').valueOf();
sats=[{"MEAN_ELEMENT_THEORY":"SGP4","OBJECT_ID":"2021-044AX","PERIOD":"95.591","REF_FRAME":"TEME","PERIAPSIS":"546.136","RCS_SIZE":"LARGE","TLE_LINE2":"2 48683  53.0544 329.7300 0001478  72.3644 252.2185 15.06417648  3596","FILE":"3407402","MEAN_ANOMALY":"252.2185","BSTAR":"-0.00250500000000","APOAPSIS":"548.183","INCLINATION":"53.0544","REV_AT_EPOCH":"359","ARG_OF_PERICENTER":"72.3644","COUNTRY_CODE":"US","ELEMENT_SET_NO":"999","MEAN_MOTION":"15.06417648","MEAN_MOTION_DDOT":"0.0000000000000","DECAY_DATE":null,"EPOCH":"2022-04-18T22:00:00.999936","CENTER_NAME":"EARTH","OBJECT_TYPE":"PAYLOAD","TLE_LINE1":"1 48683U 21044AX  22108.91667824 -.00037416  00000-0 -25050-2 0  9993","MEAN_MOTION_DOT":"-0.00037416","LAUNCH_DATE":"2021-05-26","EPHEMERIS_TYPE":"0","GP_ID":"201580996","OBJECT_NAME":"STARLINK-2756","SEMIMAJOR_AXIS":"6925.294","CLASSIFICATION_TYPE":"U","TIME_SYSTEM":"UTC","ECCENTRICITY":"0.00014780","NORAD_CAT_ID":"48683","SITE":"AFETR","RA_OF_ASC_NODE":"329.7300"},{"MEAN_ANOMALY":"292.8224","FILE":"3407402","INCLINATION":"53.0544","APOAPSIS":"548.290","BSTAR":"0.00033652000000","PERIOD":"95.592","OBJECT_ID":"2021-044AY","MEAN_ELEMENT_THEORY":"SGP4","TLE_LINE2":"2 48684  53.0544 345.0431 0001576  67.2931 292.8224 15.06404772 50044","RCS_SIZE":"LARGE","PERIAPSIS":"546.107","REF_FRAME":"TEME","TIME_SYSTEM":"UTC","CLASSIFICATION_TYPE":"U","SEMIMAJOR_AXIS":"6925.334","OBJECT_NAME":"STARLINK-2741","GP_ID":"201582248","EPHEMERIS_TYPE":"0","LAUNCH_DATE":"2021-05-26","RA_OF_ASC_NODE":"345.0431","SITE":"AFETR","NORAD_CAT_ID":"48684","ECCENTRICITY":"0.00015760","MEAN_MOTION_DDOT":"0.0000000000000","MEAN_MOTION":"15.06404772","ELEMENT_SET_NO":"999","COUNTRY_CODE":"US","ARG_OF_PERICENTER":"67.2931","REV_AT_EPOCH":"5004","MEAN_MOTION_DOT":"0.00004735","TLE_LINE1":"1 48684U 21044AY  22108.84628606  .00004735  00000-0  33652-3 0  9995","OBJECT_TYPE":"PAYLOAD","CENTER_NAME":"EARTH","EPOCH":"2022-04-18T20:18:39.115584","DECAY_DATE":null},{"FILE":"3407402","MEAN_ANOMALY":"60.7180","INCLINATION":"53.0554","BSTAR":"-0.00274490000000","APOAPSIS":"548.201","MEAN_ELEMENT_THEORY":"SGP4","OBJECT_ID":"2021-044AZ","PERIOD":"95.591","REF_FRAME":"TEME","PERIAPSIS":"546.092","TLE_LINE2":"2 48685  53.0554 329.7131 0001523  83.8663  60.7180 15.06421820  3606","RCS_SIZE":"LARGE","LAUNCH_DATE":"2021-05-26","EPHEMERIS_TYPE":"0","SEMIMAJOR_AXIS":"6925.282","CLASSIFICATION_TYPE":"U","TIME_SYSTEM":"UTC","GP_ID":"201582499","OBJECT_NAME":"STARLINK-2751","ECCENTRICITY":"0.00015230","RA_OF_ASC_NODE":"329.7131","NORAD_CAT_ID":"48685","SITE":"AFETR","COUNTRY_CODE":"US","ELEMENT_SET_NO":"999","REV_AT_EPOCH":"360","ARG_OF_PERICENTER":"83.8663","MEAN_MOTION":"15.06421820","MEAN_MOTION_DDOT":"0.0000000000000","EPOCH":"2022-04-18T22:00:00.999936","CENTER_NAME":"EARTH","DECAY_DATE":null,"MEAN_MOTION_DOT":"-0.00040957","OBJECT_TYPE":"PAYLOAD","TLE_LINE1":"1 48685U 21044AZ  22108.91667824 -.00040957  00000-0 -27449-2 0  9993"},{"APOAPSIS":"548.249","BSTAR":"-0.00243920000000","INCLINATION":"53.0557","FILE":"3407030","MEAN_ANOMALY":"235.4375","PERIAPSIS":"545.986","REF_FRAME":"TEME","RCS_SIZE":"LARGE","TLE_LINE2":"2 48686  53.0557 334.7182 0001634  61.5885 235.4375 15.06431450 51097","MEAN_ELEMENT_THEORY":"SGP4","PERIOD":"95.590","OBJECT_ID":"2021-044BA","ECCENTRICITY":"0.00016340","SITE":"AFETR","NORAD_CAT_ID":"48686","RA_OF_ASC_NODE":"334.7182","EPHEMERIS_TYPE":"0","LAUNCH_DATE":"2021-05-26","OBJECT_NAME":"STARLINK-2629","GP_ID":"201549826","TIME_SYSTEM":"UTC","CLASSIFICATION_TYPE":"U","SEMIMAJOR_AXIS":"6925.252","DECAY_DATE":null,"CENTER_NAME":"EARTH","EPOCH":"2022-04-18T22:00:00.999936","TLE_LINE1":"1 48686U 21044BA  22108.91667824 -.00036459  00000-0 -24392-2 0  9990","OBJECT_TYPE":"PAYLOAD","MEAN_MOTION_DOT":"-0.00036459","ARG_OF_PERICENTER":"61.5885","REV_AT_EPOCH":"5109","ELEMENT_SET_NO":"999","COUNTRY_CODE":"US","MEAN_MOTION_DDOT":"0.0000000000000","MEAN_MOTION":"15.06431450"},{"MEAN_ELEMENT_THEORY":"SGP4","OBJECT_ID":"2021-044BB","PERIOD":"95.591","REF_FRAME":"TEME","PERIAPSIS":"546.104","TLE_LINE2":"2 48687  53.0540 324.7284 0001539  66.2248 220.7390 15.06414320  3594","RCS_SIZE":"LARGE","FILE":"3407402","MEAN_ANOMALY":"220.7390","INCLINATION":"53.0540","BSTAR":"-0.00196620000000","APOAPSIS":"548.235","COUNTRY_CODE":"US","ELEMENT_SET_NO":"999","REV_AT_EPOCH":"359","ARG_OF_PERICENTER":"66.2248","MEAN_MOTION":"15.06414320","MEAN_MOTION_DDOT":"0.0000000000000","EPOCH":"2022-04-18T22:00:00.999936","CENTER_NAME":"EARTH","DECAY_DATE":null,"MEAN_MOTION_DOT":"-0.00029459","OBJECT_TYPE":"PAYLOAD","TLE_LINE1":"1 48687U 21044BB  22108.91667824 -.00029459  00000-0 -19662-2 0  9997","LAUNCH_DATE":"2021-05-26","EPHEMERIS_TYPE":"0","SEMIMAJOR_AXIS":"6925.305","TIME_SYSTEM":"UTC","CLASSIFICATION_TYPE":"U","GP_ID":"201581497","OBJECT_NAME":"STARLINK-2627","ECCENTRICITY":"0.00015390","RA_OF_ASC_NODE":"324.7284","NORAD_CAT_ID":"48687","SITE":"AFETR"},{"GP_ID":"201581748","OBJECT_NAME":"STARLINK-2742","SEMIMAJOR_AXIS":"6925.354","CLASSIFICATION_TYPE":"U","TIME_SYSTEM":"UTC","LAUNCH_DATE":"2021-05-26","EPHEMERIS_TYPE":"0","NORAD_CAT_ID":"48688","SITE":"AFETR","RA_OF_ASC_NODE":"324.7103","ECCENTRICITY":"0.00015290","MEAN_MOTION":"15.06398301","MEAN_MOTION_DDOT":"0.0000000000000","REV_AT_EPOCH":"359","ARG_OF_PERICENTER":"84.6302","COUNTRY_CODE":"US","ELEMENT_SET_NO":"999","OBJECT_TYPE":"PAYLOAD","TLE_LINE1":"1 48688U 21044BC  22108.91667824 -.00003475  00000-0 -21450-3 0  9997","MEAN_MOTION_DOT":"-0.00003475","DECAY_DATE":null,"CENTER_NAME":"EARTH","EPOCH":"2022-04-18T22:00:00.999936","MEAN_ANOMALY":"182.3339","FILE":"3407402","BSTAR":"-0.00021450000000","APOAPSIS":"548.278","INCLINATION":"53.0546","OBJECT_ID":"2021-044BC","PERIOD":"95.592","MEAN_ELEMENT_THEORY":"SGP4","RCS_SIZE":"LARGE","TLE_LINE2":"2 48688  53.0546 324.7103 0001529  84.6302 182.3339 15.06398301  3591","REF_FRAME":"TEME","PERIAPSIS":"546.160"},{"PERIOD":"95.643","OBJECT_ID":"2021-044BD","MEAN_ELEMENT_THEORY":"SGP4","TLE_LINE2":"2 48689  53.0553 329.7083 0001541  70.8536 159.4700 15.05599664  3593","RCS_SIZE":"LARGE","PERIAPSIS":"548.600","REF_FRAME":"TEME","MEAN_ANOMALY":"159.4700","FILE":"3407402","INCLINATION":"53.0553","APOAPSIS":"550.735","BSTAR":"-0.00161930000000","MEAN_MOTION_DDOT":"0.0000000000000","MEAN_MOTION":"15.05599664","ELEMENT_SET_NO":"999","COUNTRY_CODE":"US","ARG_OF_PERICENTER":"70.8536","REV_AT_EPOCH":"359","MEAN_MOTION_DOT":"-0.00023805","TLE_LINE1":"1 48689U 21044BD  22108.91667824 -.00023805  00000-0 -16193-2 0  9994","OBJECT_TYPE":"PAYLOAD","CENTER_NAME":"EARTH","EPOCH":"2022-04-18T22:00:00.999936","DECAY_DATE":null,"TIME_SYSTEM":"UTC","CLASSIFICATION_TYPE":"U","SEMIMAJOR_AXIS":"6927.803","OBJECT_NAME":"STARLINK-2617","GP_ID":"201581999","EPHEMERIS_TYPE":"0","LAUNCH_DATE":"2021-05-26","RA_OF_ASC_NODE":"329.7083","SITE":"AFETR","NORAD_CAT_ID":"48689","ECCENTRICITY":"0.00015410"},{"COUNTRY_CODE":"US","ELEMENT_SET_NO":"999","REV_AT_EPOCH":"359","ARG_OF_PERICENTER":"77.8330","MEAN_MOTION":"15.06416043","MEAN_MOTION_DDOT":"0.0000000000000","CENTER_NAME":"EARTH","EPOCH":"2022-04-18T22:00:00.999936","DECAY_DATE":null,"MEAN_MOTION_DOT":"-0.00044781","OBJECT_TYPE":"PAYLOAD","TLE_LINE1":"1 48690U 21044BE  22108.91667824 -.00044781  00000-0 -30051-2 0  9991","LAUNCH_DATE":"2021-05-26","EPHEMERIS_TYPE":"0","SEMIMAJOR_AXIS":"6925.299","TIME_SYSTEM":"UTC","CLASSIFICATION_TYPE":"U","GP_ID":"201580747","OBJECT_NAME":"STARLINK-2740","ECCENTRICITY":"0.00013910","RA_OF_ASC_NODE":"339.7183","NORAD_CAT_ID":"48690","SITE":"AFETR","MEAN_ELEMENT_THEORY":"SGP4","OBJECT_ID":"2021-044BE","PERIOD":"95.591","REF_FRAME":"TEME","PERIAPSIS":"546.201","TLE_LINE2":"2 48690  53.0555 339.7183 0001391  77.8330 126.5958 15.06416043  3591","RCS_SIZE":"LARGE","FILE":"3407402","MEAN_ANOMALY":"126.5958","INCLINATION":"53.0555","BSTAR":"-0.00300510000000","APOAPSIS":"548.128"},{"INCLINATION":"53.0578","BSTAR":"-0.00008107700000","APOAPSIS":"548.487","MEAN_ANOMALY":"286.4040","FILE":"3407402","TLE_LINE2":"2 48691  53.0578 334.7093 0001828  65.5097 286.4040 15.06397444  3592","RCS_SIZE":"LARGE","REF_FRAME":"TEME","PERIAPSIS":"545.955","OBJECT_ID":"2021-044BF","PERIOD":"95.592","MEAN_ELEMENT_THEORY":"SGP4","RA_OF_ASC_NODE":"334.7093","NORAD_CAT_ID":"48691","SITE":"AFETR","ECCENTRICITY":"0.00018280","SEMIMAJOR_AXIS":"6925.356","TIME_SYSTEM":"UTC","CLASSIFICATION_TYPE":"U","GP_ID":"201580997","OBJECT_NAME":"STARLINK-2750","LAUNCH_DATE":"2021-05-26","EPHEMERIS_TYPE":"0","MEAN_MOTION_DOT":"-0.00001489","OBJECT_TYPE":"PAYLOAD","TLE_LINE1":"1 48691U 21044BF  22108.91667824 -.00001489  00000-0 -81077-4 0  9996","CENTER_NAME":"EARTH","EPOCH":"2022-04-18T22:00:00.999936","DECAY_DATE":null,"MEAN_MOTION":"15.06397444","MEAN_MOTION_DDOT":"0.0000000000000","COUNTRY_CODE":"US","ELEMENT_SET_NO":"999","REV_AT_EPOCH":"359","ARG_OF_PERICENTER":"65.5097"},{"MEAN_ELEMENT_THEORY":"SGP4","OBJECT_ID":"2021-044BG","PERIOD":"95.591","REF_FRAME":"TEME","PERIAPSIS":"546.148","TLE_LINE2":"2 48692  53.0535 334.7239 0001456  85.0444  52.0143 15.06418799  3608","RCS_SIZE":"LARGE","FILE":"3407402","MEAN_ANOMALY":"52.0143","INCLINATION":"53.0535","BSTAR":"-0.00156880000000","APOAPSIS":"548.164","COUNTRY_CODE":"US","ELEMENT_SET_NO":"999","REV_AT_EPOCH":"360","ARG_OF_PERICENTER":"85.0444","MEAN_MOTION":"15.06418799","MEAN_MOTION_DDOT":"0.0000000000000","EPOCH":"2022-04-18T22:00:00.999936","CENTER_NAME":"EARTH","DECAY_DATE":null,"MEAN_MOTION_DOT":"-0.00023584","OBJECT_TYPE":"PAYLOAD","TLE_LINE1":"1 48692U 21044BG  22108.91667824 -.00023584  00000-0 -15688-2 0  9990","LAUNCH_DATE":"2021-05-26","EPHEMERIS_TYPE":"0","SEMIMAJOR_AXIS":"6925.291","CLASSIFICATION_TYPE":"U","TIME_SYSTEM":"UTC","GP_ID":"201582249","OBJECT_NAME":"STARLINK-2752","ECCENTRICITY":"0.00014560","RA_OF_ASC_NODE":"334.7239","NORAD_CAT_ID":"48692","SITE":"AFETR"}];
